{
  "updated": "2026-07-18T16:51:20.998Z",
  "capsules": {
    "66664": {
      "name": "SOYUZ-MS 28",
      "kind": "crew",
      "family": "soyuz",
      "phase": "docked",
      "stationKey": "iss",
      "since": "2026-07-03T10:34:14.509Z",
      "distanceKm": 0,
      "altitudeKm": 427.2,
      "inclinationDeg": 51.632,
      "l1": "1 66664U 25275A   26199.08891132  .00003768  00000+0  76429-4 0  9993",
      "l2": "2 66664  51.6318 147.1664 0006793 308.8910  51.1472 15.49037991575428"
    },
    "67796": {
      "name": "CREW DRAGON 12",
      "kind": "crew",
      "family": "dragon",
      "phase": "docked",
      "stationKey": "iss",
      "since": "2026-07-03T10:34:14.509Z",
      "distanceKm": 0,
      "altitudeKm": 427.2,
      "inclinationDeg": 51.632,
      "l1": "1 67796U 26031A   26199.08891132  .00003768  00000+0  76429-4 0  9991",
      "l2": "2 67796  51.6318 147.1664 0006793 308.8910  51.1472 15.49037991575694"
    },
    "68319": {
      "name": "PROGRESS-MS 33",
      "kind": "cargo",
      "family": "progress",
      "phase": "docked",
      "stationKey": "iss",
      "since": "2026-07-10T20:18:26.588Z",
      "distanceKm": 0,
      "altitudeKm": 427.2,
      "inclinationDeg": 51.632,
      "l1": "1 68319U 26058A   26199.08891132  .00003768  00000+0  76429-4 0  9992",
      "l2": "2 68319  51.6318 147.1664 0006793 308.8910  51.1472 15.49037991575461"
    },
    "68689": {
      "name": "CYGNUS NG-24",
      "kind": "cargo",
      "family": "cygnus",
      "phase": "docked",
      "stationKey": "iss",
      "since": "2026-07-10T20:18:26.588Z",
      "distanceKm": 0,
      "altitudeKm": 427.2,
      "inclinationDeg": 51.632,
      "l1": "1 68689U 26079A   26199.08891132  .00003768  00000+0  76429-4 0  9995",
      "l2": "2 68689  51.6318 147.1664 0006793 308.8910  51.1472 15.49037991575810"
    },
    "68837": {
      "name": "PROGRESS-MS 34",
      "kind": "cargo",
      "family": "progress",
      "phase": "docked",
      "stationKey": "iss",
      "since": "2026-07-10T20:18:26.588Z",
      "distanceKm": 0,
      "altitudeKm": 427.2,
      "inclinationDeg": 51.632,
      "l1": "1 68837U 26093A   26199.08891132  .00003768  00000+0  76429-4 0  9996",
      "l2": "2 68837  51.6318 147.1664 0006793 308.8910  51.1472 15.49037991575859"
    },
    "69049": {
      "name": "TIANZHOU-10",
      "kind": "cargo",
      "family": "tianzhou",
      "phase": "docked",
      "stationKey": "css",
      "since": "2026-07-10T20:18:26.588Z",
      "distanceKm": 0,
      "altitudeKm": 402.4,
      "inclinationDeg": 41.469,
      "l1": "1 69049U 26102A   26198.52240887  .00001129  00000+0  18813-4 0  9998",
      "l2": "2 69049  41.4691 137.7269 0001921 301.5742  58.4908 15.58143309297501"
    },
    "69180": {
      "name": "SHENZHOU-23 (SZ-23)",
      "kind": "crew",
      "family": "shenzhou",
      "phase": "docked",
      "stationKey": "css",
      "since": "2026-07-03T10:34:14.509Z",
      "distanceKm": 0,
      "altitudeKm": 402.4,
      "inclinationDeg": 41.469,
      "l1": "1 69180U 26113A   26198.52240887  .00001129  00000+0  18813-4 0  9996",
      "l2": "2 69180  41.4691 137.7269 0001921 301.5742  58.4908 15.58143309297372"
    }
  },
  "events": [
    {
      "id": "68319",
      "name": "PROGRESS-MS 33",
      "kind": "cargo",
      "family": "progress",
      "stationKey": "iss",
      "event": "launched",
      "at": "2026-07-10T20:18:26.588Z"
    },
    {
      "id": "68689",
      "name": "CYGNUS NG-24",
      "kind": "cargo",
      "family": "cygnus",
      "stationKey": "iss",
      "event": "launched",
      "at": "2026-07-10T20:18:26.588Z"
    },
    {
      "id": "68837",
      "name": "PROGRESS-MS 34",
      "kind": "cargo",
      "family": "progress",
      "stationKey": "iss",
      "event": "launched",
      "at": "2026-07-10T20:18:26.588Z"
    },
    {
      "id": "69049",
      "name": "TIANZHOU-10",
      "kind": "cargo",
      "family": "tianzhou",
      "stationKey": "css",
      "event": "launched",
      "at": "2026-07-10T20:18:26.588Z"
    }
  ]
}
